STARLINK-31096          
1 58592U 23200D   26068.29383499  .00044809  00000+0  18692-2 0  9997
2 58592  43.0024 171.6597 0002152 311.2907  48.7758 15.22976409123542
TRANSPORTER-13 OBJECT AH
1 63241U 25052AH  26068.64880921  .00014108  00000+0  55931-3 0  9999
2 63241  97.3962 323.1443 0008070 138.7508 221.4341 15.25468797 54753
